CCSDS_OMM_VERS = 2.0
CREATION_DATE  = 
ORIGINATOR     = 

OBJECT_NAME    = ATLAS CENTAUR R/B
OBJECT_ID      = 1972-065B
CENTER_NAME    = EARTH
REF_FRAME      = TEME
TIME_SYSTEM    = UTC
MEAN_ELEMENT_THEORY = SGP/SGP4

EPOCH          = 2026-02-14T10:48:05.808672
MEAN_MOTION    = 14.77617452
ECCENTRICITY   = .003373
INCLINATION    = 35.0014
RA_OF_ASC_NODE = 81.9368
ARG_OF_PERICENTER = 175.6846
MEAN_ANOMALY   = 184.4150

EPHEMERIS_TYPE = 0
CLASSIFICATION_TYPE = U
NORAD_CAT_ID   = 6155
ELEMENT_SET_NO = 999
REV_AT_EPOCH   = 83782
BSTAR          = .19397E-3
MEAN_MOTION_DOT = .14E-4
MEAN_MOTION_DDOT = 0

CCSDS_OMM_VERS = 2.0
CREATION_DATE  = 
ORIGINATOR     = 

OBJECT_NAME    = SL-8 R/B
OBJECT_ID      = 1975-112B
CENTER_NAME    = EARTH
REF_FRAME      = TEME
TIME_SYSTEM    = UTC
MEAN_ELEMENT_THEORY = SGP/SGP4

EPOCH          = 2026-02-14T11:29:31.425216
MEAN_MOTION    = 14.38191563
ECCENTRICITY   = .0015179
INCLINATION    = 74.0591
RA_OF_ASC_NODE = 61.6118
ARG_OF_PERICENTER = 163.4513
MEAN_ANOMALY   = 196.7139

EPHEMERIS_TYPE = 0
CLASSIFICATION_TYPE = U
NORAD_CAT_ID   = 8459
ELEMENT_SET_NO = 999
REV_AT_EPOCH   = 62853
BSTAR          = .73936E-4
MEAN_MOTION_DOT = .199E-5
MEAN_MOTION_DDOT = 0

CCSDS_OMM_VERS = 2.0
CREATION_DATE  = 
ORIGINATOR     = 

OBJECT_NAME    = SL-3 R/B
OBJECT_ID      = 1977-057B
CENTER_NAME    = EARTH
REF_FRAME      = TEME
TIME_SYSTEM    = UTC
MEAN_ELEMENT_THEORY = SGP/SGP4

EPOCH          = 2026-02-14T11:16:14.950272
MEAN_MOTION    = 15.44809506
ECCENTRICITY   = .0007579
INCLINATION    = 97.5732
RA_OF_ASC_NODE = 216.3857
ARG_OF_PERICENTER = 15.6205
MEAN_ANOMALY   = 344.5275

EPHEMERIS_TYPE = 0
CLASSIFICATION_TYPE = U
NORAD_CAT_ID   = 10114
ELEMENT_SET_NO = 999
REV_AT_EPOCH   = 66474
BSTAR          = .29097E-3
MEAN_MOTION_DOT = .13556E-3
MEAN_MOTION_DDOT = 0

CCSDS_OMM_VERS = 2.0
CREATION_DATE  = 
ORIGINATOR     = 

OBJECT_NAME    = SEASAT 1
OBJECT_ID      = 1978-064A
CENTER_NAME    = EARTH
REF_FRAME      = TEME
TIME_SYSTEM    = UTC
MEAN_ELEMENT_THEORY = SGP/SGP4

EPOCH          = 2026-02-14T01:07:04.122336
MEAN_MOTION    = 14.46141058
ECCENTRICITY   = .00016936
INCLINATION    = 108.0160
RA_OF_ASC_NODE = 75.8824
ARG_OF_PERICENTER = 292.5137
MEAN_ANOMALY   = 67.5830

EPHEMERIS_TYPE = 0
CLASSIFICATION_TYPE = U
NORAD_CAT_ID   = 10967
ELEMENT_SET_NO = 999
REV_AT_EPOCH   = 50309
BSTAR          = .11246975E-3
MEAN_MOTION_DOT = .265E-5
MEAN_MOTION_DDOT = 0

CCSDS_OMM_VERS = 2.0
CREATION_DATE  = 
ORIGINATOR     = 

OBJECT_NAME    = SL-14 R/B
OBJECT_ID      = 1979-011B
CENTER_NAME    = EARTH
REF_FRAME      = TEME
TIME_SYSTEM    = UTC
MEAN_ELEMENT_THEORY = SGP/SGP4

EPOCH          = 2026-02-14T05:45:26.815680
MEAN_MOTION    = 14.91879777
ECCENTRICITY   = .0017237
INCLINATION    = 82.5244
RA_OF_ASC_NODE = 118.8225
ARG_OF_PERICENTER = 132.3849
MEAN_ANOMALY   = 227.8833

EPHEMERIS_TYPE = 0
CLASSIFICATION_TYPE = U
NORAD_CAT_ID   = 11267
ELEMENT_SET_NO = 999
REV_AT_EPOCH   = 52528
BSTAR          = .6501E-4
MEAN_MOTION_DOT = .684E-5
MEAN_MOTION_DDOT = 0

CCSDS_OMM_VERS = 2.0
CREATION_DATE  = 
ORIGINATOR     = 

OBJECT_NAME    = SL-8 R/B
OBJECT_ID      = 1979-089B
CENTER_NAME    = EARTH
REF_FRAME      = TEME
TIME_SYSTEM    = UTC
MEAN_ELEMENT_THEORY = SGP/SGP4

EPOCH          = 2026-02-14T12:14:23.680320
MEAN_MOTION    = 14.42336290
ECCENTRICITY   = .0016736
INCLINATION    = 74.0695
RA_OF_ASC_NODE = 133.9519
ARG_OF_PERICENTER = 309.3837
MEAN_ANOMALY   = 50.5837

EPHEMERIS_TYPE = 0
CLASSIFICATION_TYPE = U
NORAD_CAT_ID   = 11574
ELEMENT_SET_NO = 999
REV_AT_EPOCH   = 43276
BSTAR          = .93735E-4
MEAN_MOTION_DOT = .284E-5
MEAN_MOTION_DDOT = 0

CCSDS_OMM_VERS = 2.0
CREATION_DATE  = 
ORIGINATOR     = 

OBJECT_NAME    = SL-14 R/B
OBJECT_ID      = 1980-005B
CENTER_NAME    = EARTH
REF_FRAME      = TEME
TIME_SYSTEM    = UTC
MEAN_ELEMENT_THEORY = SGP/SGP4

EPOCH          = 2026-02-14T07:18:39.377088
MEAN_MOTION    = 14.90900101
ECCENTRICITY   = .0014244
INCLINATION    = 82.5174
RA_OF_ASC_NODE = 329.4125
ARG_OF_PERICENTER = 238.7783
MEAN_ANOMALY   = 121.2041

EPHEMERIS_TYPE = 0
CLASSIFICATION_TYPE = U
NORAD_CAT_ID   = 11672
ELEMENT_SET_NO = 999
REV_AT_EPOCH   = 47300
BSTAR          = .7331E-4
MEAN_MOTION_DOT = .749E-5
MEAN_MOTION_DDOT = 0

CCSDS_OMM_VERS = 2.0
CREATION_DATE  = 
ORIGINATOR     = 

OBJECT_NAME    = SL-8 R/B
OBJECT_ID      = 1981-003B
CENTER_NAME    = EARTH
REF_FRAME      = TEME
TIME_SYSTEM    = UTC
MEAN_ELEMENT_THEORY = SGP/SGP4

EPOCH          = 2026-02-14T05:14:10.684608
MEAN_MOTION    = 15.10119545
ECCENTRICITY   = .0262646
INCLINATION    = 82.9400
RA_OF_ASC_NODE = 311.7113
ARG_OF_PERICENTER = 260.5035
MEAN_ANOMALY   = 96.6427

EPHEMERIS_TYPE = 0
CLASSIFICATION_TYPE = U
NORAD_CAT_ID   = 12139
ELEMENT_SET_NO = 999
REV_AT_EPOCH   = 31113
BSTAR          = .41722E-3
MEAN_MOTION_DOT = .15795E-3
MEAN_MOTION_DDOT = 0

CCSDS_OMM_VERS = 2.0
CREATION_DATE  = 
ORIGINATOR     = 

OBJECT_NAME    = SL-3 R/B
OBJECT_ID      = 1981-046B
CENTER_NAME    = EARTH
REF_FRAME      = TEME
TIME_SYSTEM    = UTC
MEAN_ELEMENT_THEORY = SGP/SGP4

EPOCH          = 2026-02-14T10:02:24.443808
MEAN_MOTION    = 15.41340564
ECCENTRICITY   = .00208
INCLINATION    = 81.2344
RA_OF_ASC_NODE = 317.6690
ARG_OF_PERICENTER = 98.9048
MEAN_ANOMALY   = 261.4550

EPHEMERIS_TYPE = 0
CLASSIFICATION_TYPE = U
NORAD_CAT_ID   = 12465
ELEMENT_SET_NO = 999
REV_AT_EPOCH   = 43484
BSTAR          = .34145E-3
MEAN_MOTION_DOT = .14385E-3
MEAN_MOTION_DDOT = 0

CCSDS_OMM_VERS = 2.0
CREATION_DATE  = 
ORIGINATOR     = 

OBJECT_NAME    = SL-3 R/B
OBJECT_ID      = 1981-103B
CENTER_NAME    = EARTH
REF_FRAME      = TEME
TIME_SYSTEM    = UTC
MEAN_ELEMENT_THEORY = SGP/SGP4

EPOCH          = 2026-02-14T11:41:36.366144
MEAN_MOTION    = 15.21087430
ECCENTRICITY   = .0013406
INCLINATION    = 81.1557
RA_OF_ASC_NODE = 240.6488
ARG_OF_PERICENTER = 8.1764
MEAN_ANOMALY   = 351.9683

EPHEMERIS_TYPE = 0
CLASSIFICATION_TYPE = U
NORAD_CAT_ID   = 12904
ELEMENT_SET_NO = 999
REV_AT_EPOCH   = 96970
BSTAR          = .27766E-3
MEAN_MOTION_DOT = .6211E-4
MEAN_MOTION_DDOT = 0

CCSDS_OMM_VERS = 2.0
CREATION_DATE  = 
ORIGINATOR     = 

OBJECT_NAME    = SL-3 R/B
OBJECT_ID      = 1982-013B
CENTER_NAME    = EARTH
REF_FRAME      = TEME
TIME_SYSTEM    = UTC
MEAN_ELEMENT_THEORY = SGP/SGP4

EPOCH          = 2026-02-14T10:32:51.170496
MEAN_MOTION    = 15.21753711
ECCENTRICITY   = .0021764
INCLINATION    = 81.1747
RA_OF_ASC_NODE = 188.0104
ARG_OF_PERICENTER = 257.8746
MEAN_ANOMALY   = 102.0048

EPHEMERIS_TYPE = 0
CLASSIFICATION_TYPE = U
NORAD_CAT_ID   = 13068
ELEMENT_SET_NO = 999
REV_AT_EPOCH   = 40081
BSTAR          = .21507E-3
MEAN_MOTION_DOT = .493E-4
MEAN_MOTION_DDOT = 0

CCSDS_OMM_VERS = 2.0
CREATION_DATE  = 
ORIGINATOR     = 

OBJECT_NAME    = SL-3 R/B
OBJECT_ID      = 1982-039B
CENTER_NAME    = EARTH
REF_FRAME      = TEME
TIME_SYSTEM    = UTC
MEAN_ELEMENT_THEORY = SGP/SGP4

EPOCH          = 2026-02-14T12:43:41.009664
MEAN_MOTION    = 15.09948424
ECCENTRICITY   = .0030054
INCLINATION    = 81.1598
RA_OF_ASC_NODE = 242.6580
ARG_OF_PERICENTER = 40.1813
MEAN_ANOMALY   = 320.1626

EPHEMERIS_TYPE = 0
CLASSIFICATION_TYPE = U
NORAD_CAT_ID   = 13154
ELEMENT_SET_NO = 999
REV_AT_EPOCH   = 37814
BSTAR          = .15602E-3
MEAN_MOTION_DOT = .2581E-4
MEAN_MOTION_DDOT = 0

