ATLAS CENTAUR R/B       
1 06155U 72065B   26045.45006723  .00001400  00000+0  19397-3 0  9997
2 06155  35.0014  81.9368 0033730 175.6846 184.4150 14.77617452837825
SL-8 R/B                
1 08459U 75112B   26045.47883594  .00000199  00000+0  73936-4 0  9997
2 08459  74.0591  61.6118 0015179 163.4513 196.7139 14.38191563628534
SL-3 R/B                
1 10114U 77057B   26045.46961748  .00013556  00000+0  29097-3 0  9994
2 10114  97.5732 216.3857 0007579  15.6205 344.5275 15.44809506664740
SEASAT 1                
1 10967U 78064A   26045.04657549  .00000265  00000+0  11247-3 0  9995
2 10967 108.0160  75.8824 0001693 292.5137  67.5830 14.46141058503093
SL-14 R/B               
1 11267U 79011B   26045.23989370  .00000684  00000+0  65010-4 0  9996
2 11267  82.5244 118.8225 0017237 132.3849 227.8833 14.91879777525286
SL-8 R/B                
1 11574U 79089B   26045.50999630  .00000284  00000+0  93735-4 0  9993
2 11574  74.0695 133.9519 0016736 309.3837  50.5837 14.42336290432762
SL-14 R/B               
1 11672U 80005B   26045.30462242  .00000749  00000+0  73310-4 0  9997
2 11672  82.5174 329.4125 0014244 238.7783 121.2041 14.90900101473005
SL-8 R/B                
1 12139U 81003B   26045.21817922  .00015795  00000+0  41722-3 0  9992
2 12139  82.9400 311.7113 0262646 260.5035  96.6427 15.10119545311130
SL-3 R/B                
1 12465U 81046B   26045.41833847  .00014385  00000+0  34145-3 0  9992
2 12465  81.2344 317.6690 0020800  98.9048 261.4550 15.41340564434841
SL-3 R/B                
1 12904U 81103B   26045.48722646  .00006211  00000+0  27766-3 0  9995
2 12904  81.1557 240.6488 0013406   8.1764 351.9683 15.21087430969704
SL-3 R/B                
1 13068U 82013B   26045.43948114  .00004930  00000+0  21507-3 0  9996
2 13068  81.1747 188.0104 0021764 257.8746 102.0048 15.21753711400810
SL-3 R/B                
1 13154U 82039B   26045.53033576  .00002581  00000+0  15602-3 0  9997
2 13154  81.1598 242.6580 0030054  40.1813 320.1626 15.09948424378143
